[{"OBJECT_NAME":"GEOSCAN 3 (RS92S3)","OBJECT_ID":"2025-155T","EPOCH":"2026-03-09T22:52:10.587648","MEAN_MOTION":15.31696739,"ECCENTRICITY":0.00068078,"INCLINATION":97.4455,"RA_OF_ASC_NODE":37.9971,"ARG_OF_PERICENTER":154.1387,"MEAN_ANOMALY":206.0196,"EPHEMERIS_TYPE":0,"CLASSIFICATION_TYPE":"U","NORAD_CAT_ID":64893,"ELEMENT_SET_NO":999,"REV_AT_EPOCH":6564,"BSTAR":0.00078414081,"MEAN_MOTION_DOT":0.00023985,"MEAN_MOTION_DDOT":0},{"OBJECT_NAME":"STARLINK-35134","OBJECT_ID":"2025-210V","EPOCH":"2026-03-09T22:42:40.203360","MEAN_MOTION":15.30200926,"ECCENTRICITY":0.00010222,"INCLINATION":53.1575,"RA_OF_ASC_NODE":305.6542,"ARG_OF_PERICENTER":64.9738,"MEAN_ANOMALY":295.1369,"EPHEMERIS_TYPE":0,"CLASSIFICATION_TYPE":"U","NORAD_CAT_ID":65641,"ELEMENT_SET_NO":999,"REV_AT_EPOCH":2777,"BSTAR":0.0012385355,"MEAN_MOTION_DOT":0.00036504,"MEAN_MOTION_DDOT":0}]
